HIMAWARI-8              
1 40267U 14060A   24225.92562910 -.00000264  00000+0  00000+0 0  9990
2 40267   0.0492 257.2089 0000800 253.4310 285.0941  1.00273825 36001
